[
    {
        "Altitude(m)": 607911.0158311184,
        "Argument of Periapsis(deg)": 0.0,
        "Eccentricity": 0.0,
        "Inclination(deg)": 60.0,
        "Latitude(deg)": -14.292982529599822,
        "Longitude(deg)": -21.557324332855412,
        "Mean Anomaly(deg)": -163.6364,
        "RAAN(deg)": 250.00000000000003,
        "Satellite Name": "Test1 1112",
        "Satellite Number": 1112,
        "Semi-Major Axis(m)": 6980739.136638005,
        "Time(s)": 0
    },
    {
        "Altitude(m)": 608060.2495530955,
        "Argument of Periapsis(deg)": 0.00010418945913296404,
        "Eccentricity": 0.0,
        "Inclination(deg)": 60.0,
        "Latitude(deg)": -14.826643365972892,
        "Longitude(deg)": -21.26871374417543,
        "Mean Anomaly(deg)": -163.01629385453816,
        "RAAN(deg)": 249.99957995086027,
        "Satellite Name": "Test1 1112",
        "Satellite Number": 1112,
        "Semi-Major Axis(m)": 6980739.136638005,
        "Time(s)": 10
    },
    {
        "Altitude(m)": 608211.9134710786,
        "Argument of Periapsis(deg)": 0.0002083789182659281,
        "Eccentricity": 0.0,
        "Inclination(deg)": 60.0,
        "Latitude(deg)": -15.359787978899442,
        "Longitude(deg)": -20.978494357483033,
        "Mean Anomaly(deg)": -162.39618770907637,
        "RAAN(deg)": 249.99915990172053,
        "Satellite Name": "Test1 1112",
        "Satellite Number": 1112,
        "Semi-Major Axis(m)": 6980739.136638005,
        "Time(s)": 20
    },
    {
        "Altitude(m)": 608365.9595035996,
        "Argument of Periapsis(deg)": 0.00031256837739889213,
        "Eccentricity": 0.0,
        "Inclination(deg)": 60.0,
        "Latitude(deg)": -15.89239515910575,
        "Longitude(deg)": -20.686598705171672,
        "Mean Anomaly(deg)": -161.7760815636145,
        "RAAN(deg)": 249.99873985258083,
        "Satellite Name": "Test1 1112",
        "Satellite Number": 1112,
        "Semi-Major Axis(m)": 6980739.136638005,
        "Time(s)": 30
    },
    {
        "Altitude(m)": 608522.3383716402,
        "Argument of Periapsis(deg)": 0.0004167578365318562,
        "Eccentricity": 0.0,
        "Inclination(deg)": 60.0,
        "Latitude(deg)": -16.424443365054838,
        "Longitude(deg)": -20.39295780062367,
        "Mean Anomaly(deg)": -161.1559754181527,
        "RAAN(deg)": 249.99831980344106,
        "Satellite Name": "Test1 1112",
        "Satellite Number": 1112,
        "Semi-Major Axis(m)": 6980739.136638005,
        "Time(s)": 40
    },
    {
        "Altitude(m)": 608680.9996199694,
        "Argument of Periapsis(deg)": 0.0005209472956648203,
        "Eccentricity": 0.0,
        "Inclination(deg)": 60.0,
        "Latitude(deg)": -16.955910706927927,
        "Longitude(deg)": -20.09750210288096,
        "Mean Anomaly(deg)": -160.53586927269086,
        "RAAN(deg)": 249.99789975430133,
        "Satellite Name": "Test1 1112",
        "Satellite Number": 1112,
        "Semi-Major Axis(m)": 6980739.136638005,
        "Time(s)": 50
    },
    {
        "Altitude(m)": 608841.8916389868,
        "Argument of Periapsis(deg)": 0.0006251367547977843,
        "Eccentricity": 0.0,
        "Inclination(deg)": 60.0,
        "Latitude(deg)": -17.486774930121936,
        "Longitude(deg)": -19.800160967605482,
        "Mean Anomaly(deg)": -159.91576312722904,
        "RAAN(deg)": 249.99747970516157,
        "Satellite Name": "Test1 1112",
        "Satellite Number": 1112,
        "Semi-Major Axis(m)": 6980739.136638005,
        "Time(s)": 60
    },
    {
        "Altitude(m)": 609004.9616871749,
        "Argument of Periapsis(deg)": 0.0007293262139307483,
        "Eccentricity": 0.0,
        "Inclination(deg)": 60.0,
        "Latitude(deg)": -18.017013398244295,
        "Longitude(deg)": -19.50086209717587,
        "Mean Anomaly(deg)": -159.2956569817672,
        "RAAN(deg)": 249.99705965602186,
        "Satellite Name": "Test1 1112",
        "Satellite Number": 1112,
        "Semi-Major Axis(m)": 6980739.136638005,
        "Time(s)": 70
    },
    {
        "Altitude(m)": 609170.1559140147,
        "Argument of Periapsis(deg)": 0.0008335156730637124,
        "Eccentricity": 0.0,
        "Inclination(deg)": 60.0,
        "Latitude(deg)": -18.546603075582112,
        "Longitude(deg)": -19.199532502772712,
        "Mean Anomaly(deg)": -158.6755508363054,
        "RAAN(deg)": 249.9966396068821,
        "Satellite Name": "Test1 1112",
        "Satellite Number": 1112,
        "Semi-Major Axis(m)": 6980739.136638005,
        "Time(s)": 80
    },
    {
        "Altitude(m)": 609337.4193835048,
        "Argument of Periapsis(deg)": 0.0009377051321966765,
        "Eccentricity": 0.0,
        "Inclination(deg)": 60.0,
        "Latitude(deg)": -19.075520509017654,
        "Longitude(deg)": -18.896097952682105,
        "Mean Anomaly(deg)": -158.05544469084356,
        "RAAN(deg)": 249.9962195577423,
        "Satellite Name": "Test1 1112",
        "Satellite Number": 1112,
        "Semi-Major Axis(m)": 6980739.136638005,
        "Time(s)": 90
    },
    {
        "Altitude(m)": 609506.6960981583,
        "Argument of Periapsis(deg)": 0.0010418945913296407,
        "Eccentricity": 0.0,
        "Inclination(deg)": 60.0,
        "Latitude(deg)": -19.603741809366586,
        "Longitude(deg)": -18.590482419670447,
        "Mean Anomaly(deg)": -157.43533854538168,
        "RAAN(deg)": 249.99579950860257,
        "Satellite Name": "Test1 1112",
        "Satellite Number": 1112,
        "Semi-Major Axis(m)": 6980739.136638005,
        "Time(s)": 100
    },
    {
        "Altitude(m)": 609677.9290235193,
        "Argument of Periapsis(deg)": 0.0011460840504626045,
        "Eccentricity": 0.0,
        "Inclination(deg)": 60.0,
        "Latitude(deg)": -20.13124263211533,
        "Longitude(deg)": -18.282609040286633,
        "Mean Anomaly(deg)": -156.81523239991986,
        "RAAN(deg)": 249.9953794594629,
        "Satellite Name": "Test1 1112",
        "Satellite Number": 1112,
        "Semi-Major Axis(m)": 6980739.136638005,
        "Time(s)": 110
    },
    {
        "Altitude(m)": 609851.0601131306,
        "Argument of Periapsis(deg)": 0.0012502735095955685,
        "Eccentricity": 0.0,
        "Inclination(deg)": 60.0,
        "Latitude(deg)": -20.657998157527498,
        "Longitude(deg)": -17.972399560325364,
        "Mean Anomaly(deg)": -156.19512625445805,
        "RAAN(deg)": 249.9949594103231,
        "Satellite Name": "Test1 1112",
        "Satellite Number": 1112,
        "Semi-Major Axis(m)": 6980739.136638005,
        "Time(s)": 120
    },
    {
        "Altitude(m)": 610026.0303340431,
        "Argument of Periapsis(deg)": 0.0013544629687285324,
        "Eccentricity": 0.0,
        "Inclination(deg)": 60.0,
        "Latitude(deg)": -21.18398307009136,
        "Longitude(deg)": -17.6597737793129,
        "Mean Anomaly(deg)": -155.57502010899623,
        "RAAN(deg)": 249.99453936118334,
        "Satellite Name": "Test1 1112",
        "Satellite Number": 1112,
        "Semi-Major Axis(m)": 6980739.136638005,
        "Time(s)": 130
    },
    {
        "Altitude(m)": 610202.7796927415,
        "Argument of Periapsis(deg)": 0.0014586524278614966,
        "Eccentricity": 0.0,
        "Inclination(deg)": 60.0,
        "Latitude(deg)": -21.709171537285894,
        "Longitude(deg)": -17.344650506874743,
        "Mean Anomaly(deg)": -154.95491396353438,
        "RAAN(deg)": 249.9941193120436,
        "Satellite Name": "Test1 1112",
        "Satellite Number": 1112,
        "Semi-Major Axis(m)": 6980739.136638005,
        "Time(s)": 140
    },
    {
        "Altitude(m)": 610381.2472615377,
        "Argument of Periapsis(deg)": 0.0015628418869944607,
        "Eccentricity": 0.0,
        "Inclination(deg)": 60.0,
        "Latitude(deg)": -22.233537187628436,
        "Longitude(deg)": -17.02694700522986,
        "Mean Anomaly(deg)": -154.3348078180725,
        "RAAN(deg)": 249.99369926290387,
        "Satellite Name": "Test1 1112",
        "Satellite Number": 1112,
        "Semi-Major Axis(m)": 6980739.136638005,
        "Time(s)": 150
    },
    {
        "Altitude(m)": 610561.371205386,
        "Argument of Periapsis(deg)": 0.0016670313461274247,
        "Eccentricity": 0.0,
        "Inclination(deg)": 60.0,
        "Latitude(deg)": -22.757053087978292,
        "Longitude(deg)": -16.70657843067922,
        "Mean Anomaly(deg)": -153.71470167261074,
        "RAAN(deg)": 249.99327921376414,
        "Satellite Name": "Test1 1112",
        "Satellite Number": 1112,
        "Semi-Major Axis(m)": 6980739.136638005,
        "Time(s)": 160
    },
    {
        "Altitude(m)": 610743.0888091448,
        "Argument of Periapsis(deg)": 0.0017712208052603888,
        "Eccentricity": 0.0,
        "Inclination(deg)": 60.0,
        "Latitude(deg)": -23.279691720067245,
        "Longitude(deg)": -16.383458786958354,
        "Mean Anomaly(deg)": -153.09459552714893,
        "RAAN(deg)": 249.99285916462438,
        "Satellite Name": "Test1 1112",
        "Satellite Number": 1112,
        "Semi-Major Axis(m)": 6980739.136638005,
        "Time(s)": 170
    },
    {
        "Altitude(m)": 610926.3365052381,
        "Argument of Periapsis(deg)": 0.001875410264393353,
        "Eccentricity": 0.0,
        "Inclination(deg)": 60.0,
        "Latitude(deg)": -23.80142495622029,
        "Longitude(deg)": -16.057500364710066,
        "Mean Anomaly(deg)": -152.47448938168705,
        "RAAN(deg)": 249.99243911548464,
        "Satellite Name": "Test1 1112",
        "Satellite Number": 1112,
        "Semi-Major Axis(m)": 6980739.136638005,
        "Time(s)": 180
    },
    {
        "Altitude(m)": 611111.049901695,
        "Argument of Periapsis(deg)": 0.0019795997235263173,
        "Eccentricity": 0.0,
        "Inclination(deg)": 60.0,
        "Latitude(deg)": -24.32222403423652,
        "Longitude(deg)": -15.728613179956135,
        "Mean Anomaly(deg)": -151.85438323622526,
        "RAAN(deg)": 249.9920190663449,
        "Satellite Name": "Test1 1112",
        "Satellite Number": 1112,
        "Semi-Major Axis(m)": 6980739.136638005,
        "Time(s)": 190
    }
]